start=new Date('2022-09-04T00:00:00.000Z').valueOf();
sats=[{"EPOCH":"2022-09-03T12:18:35.627904","CENTER_NAME":"EARTH","ARG_OF_PERICENTER":"92.8904","SEMIMAJOR_AXIS":"6925.363","MEAN_MOTION_DOT":"0.00000489","RCS_SIZE":"LARGE","TLE_LINE1":"1 47882U 21021Y   22246.51291236  .00000489  00000-0  51713-4 0  9992","OBJECT_TYPE":"PAYLOAD","DECAY_DATE":null,"SITE":"AFETR","MEAN_MOTION_DDOT":"0.0000000000000","PERIOD":"95.592","MEAN_MOTION":"15.06395198","LAUNCH_DATE":"2021-03-14","CLASSIFICATION_TYPE":"U","APOAPSIS":"548.147","OBJECT_ID":"2021-021Y","OBJECT_NAME":"STARLINK-2340","PERIAPSIS":"546.309","RA_OF_ASC_NODE":"272.0372","TIME_SYSTEM":"UTC","MEAN_ANOMALY":"267.2237","MEAN_ELEMENT_THEORY":"SGP4","BSTAR":"0.00005171300000","FILE":"3556494","REF_FRAME":"TEME","ECCENTRICITY":"0.00013270","COUNTRY_CODE":"US","GP_ID":"211634721","TLE_LINE2":"2 47882  53.0537 272.0372 0001327  92.8904 267.2237 15.06395198 82952","EPHEMERIS_TYPE":"0","NORAD_CAT_ID":"47882","ELEMENT_SET_NO":"999","INCLINATION":"53.0537","REV_AT_EPOCH":"8295"},{"REF_FRAME":"TEME","FILE":"3556957","BSTAR":"0.00005561700000","TIME_SYSTEM":"UTC","MEAN_ANOMALY":"280.5467","MEAN_ELEMENT_THEORY":"SGP4","TLE_LINE2":"2 47883  53.0542 275.6643 0001524  79.5693 280.5467 15.06404788 82932","COUNTRY_CODE":"US","GP_ID":"211670007","ECCENTRICITY":"0.00015240","NORAD_CAT_ID":"47883","EPHEMERIS_TYPE":"0","REV_AT_EPOCH":"8293","ELEMENT_SET_NO":"999","INCLINATION":"53.0542","SEMIMAJOR_AXIS":"6925.334","MEAN_MOTION_DOT":"0.00000547","ARG_OF_PERICENTER":"79.5693","CENTER_NAME":"EARTH","EPOCH":"2022-09-03T19:35:48.719904","MEAN_MOTION_DDOT":"0.0000000000000","OBJECT_TYPE":"PAYLOAD","DECAY_DATE":null,"SITE":"AFETR","RCS_SIZE":"LARGE","TLE_LINE1":"1 47883U 21021Z   22246.81653611  .00000547  00000-0  55617-4 0  9997","PERIOD":"95.592","PERIAPSIS":"546.143","RA_OF_ASC_NODE":"275.6643","CLASSIFICATION_TYPE":"U","APOAPSIS":"548.254","OBJECT_ID":"2021-021Z","OBJECT_NAME":"STARLINK-2342","MEAN_MOTION":"15.06404788","LAUNCH_DATE":"2021-03-14"},{"PERIOD":"95.592","LAUNCH_DATE":"2021-03-14","MEAN_MOTION":"15.06404658","OBJECT_ID":"2021-021AA","OBJECT_NAME":"STARLINK-2343","CLASSIFICATION_TYPE":"U","APOAPSIS":"548.109","PERIAPSIS":"546.290","RA_OF_ASC_NODE":"281.9412","EPOCH":"2022-09-03T12:49:06.555360","CENTER_NAME":"EARTH","ARG_OF_PERICENTER":"70.3897","MEAN_MOTION_DOT":"0.00000442","SEMIMAJOR_AXIS":"6925.334","TLE_LINE1":"1 47884U 21021AA  22246.53410365  .00000442  00000-0  48567-4 0  9994","RCS_SIZE":"LARGE","DECAY_DATE":null,"SITE":"AFETR","OBJECT_TYPE":"PAYLOAD","MEAN_MOTION_DDOT":"0.0000000000000","EPHEMERIS_TYPE":"0","NORAD_CAT_ID":"47884","ELEMENT_SET_NO":"999","INCLINATION":"53.0543","REV_AT_EPOCH":"8264","MEAN_ANOMALY":"289.7233","MEAN_ELEMENT_THEORY":"SGP4","TIME_SYSTEM":"UTC","FILE":"3556494","BSTAR":"0.00004856700000","REF_FRAME":"TEME","ECCENTRICITY":"0.00013130","GP_ID":"211635724","COUNTRY_CODE":"US","TLE_LINE2":"2 47884  53.0543 281.9412 0001313  70.3897 289.7233 15.06404658 82645"},{"MEAN_ANOMALY":"274.3766","MEAN_ELEMENT_THEORY":"SGP4","TIME_SYSTEM":"UTC","FILE":"3556957","BSTAR":"0.00019419000000","REF_FRAME":"TEME","ECCENTRICITY":"0.00009860","GP_ID":"211670508","COUNTRY_CODE":"US","TLE_LINE2":"2 47885  53.0539 286.6675 0000986  85.7336 274.3766 15.06407296 82740","EPHEMERIS_TYPE":"0","NORAD_CAT_ID":"47885","INCLINATION":"53.0539","ELEMENT_SET_NO":"999","REV_AT_EPOCH":"8274","EPOCH":"2022-09-03T14:16:00.734880","CENTER_NAME":"EARTH","ARG_OF_PERICENTER":"85.7336","MEAN_MOTION_DOT":"0.00002613","SEMIMAJOR_AXIS":"6925.326","RCS_SIZE":"LARGE","TLE_LINE1":"1 47885U 21021AB  22246.59445295  .00002613  00000-0  19419-3 0  9996","DECAY_DATE":null,"SITE":"AFETR","OBJECT_TYPE":"PAYLOAD","MEAN_MOTION_DDOT":"0.0000000000000","PERIOD":"95.592","LAUNCH_DATE":"2021-03-14","MEAN_MOTION":"15.06407296","OBJECT_NAME":"STARLINK-2344","OBJECT_ID":"2021-021AB","APOAPSIS":"547.874","CLASSIFICATION_TYPE":"U","RA_OF_ASC_NODE":"286.6675","PERIAPSIS":"546.508"},{"PERIOD":"95.592","MEAN_MOTION":"15.06399176","LAUNCH_DATE":"2021-03-14","CLASSIFICATION_TYPE":"U","APOAPSIS":"548.272","OBJECT_NAME":"STARLINK-2345","OBJECT_ID":"2021-021AC","RA_OF_ASC_NODE":"275.7742","PERIAPSIS":"546.161","EPOCH":"2022-09-03T19:02:36.595968","CENTER_NAME":"EARTH","ARG_OF_PERICENTER":"65.3051","SEMIMAJOR_AXIS":"6925.351","MEAN_MOTION_DOT":"0.00000270","TLE_LINE1":"1 47886U 21021AC  22246.79347912  .00000270  00000-0  37007-4 0  9997","RCS_SIZE":"LARGE","OBJECT_TYPE":"PAYLOAD","DECAY_DATE":null,"SITE":"AFETR","MEAN_MOTION_DDOT":"0.0000000000000","EPHEMERIS_TYPE":"0","NORAD_CAT_ID":"47886","ELEMENT_SET_NO":"999","INCLINATION":"53.0541","REV_AT_EPOCH":"8276","TIME_SYSTEM":"UTC","MEAN_ANOMALY":"294.8096","MEAN_ELEMENT_THEORY":"SGP4","BSTAR":"0.00003700700000","FILE":"3556957","REF_FRAME":"TEME","ECCENTRICITY":"0.00015240","COUNTRY_CODE":"US","GP_ID":"211670751","TLE_LINE2":"2 47886  53.0541 275.7742 0001524  65.3051 294.8096 15.06399176 82767"},{"SITE":"AFETR","DECAY_DATE":null,"OBJECT_TYPE":"PAYLOAD","MEAN_MOTION_DDOT":"0.0000000000000","TLE_LINE1":"1 47887U 21021AD  22246.61888452  .00000295  00000-0  38678-4 0  9990","RCS_SIZE":"LARGE","ARG_OF_PERICENTER":"84.3122","MEAN_MOTION_DOT":"0.00000295","SEMIMAJOR_AXIS":"6925.353","EPOCH":"2022-09-03T14:51:11.622528","CENTER_NAME":"EARTH","RA_OF_ASC_NODE":"281.5341","PERIAPSIS":"546.366","LAUNCH_DATE":"2021-03-14","MEAN_MOTION":"15.06398686","OBJECT_ID":"2021-021AD","OBJECT_NAME":"STARLINK-2346","APOAPSIS":"548.069","CLASSIFICATION_TYPE":"U","PERIOD":"95.592","GP_ID":"211669507","COUNTRY_CODE":"US","TLE_LINE2":"2 47887  53.0536 281.5341 0001230  84.3122 275.8007 15.06398686 82661","ECCENTRICITY":"0.00012300","REF_FRAME":"TEME","MEAN_ANOMALY":"275.8007","MEAN_ELEMENT_THEORY":"SGP4","TIME_SYSTEM":"UTC","BSTAR":"0.00003867800000","FILE":"3556957","REV_AT_EPOCH":"8266","ELEMENT_SET_NO":"999","INCLINATION":"53.0536","NORAD_CAT_ID":"47887","EPHEMERIS_TYPE":"0"},{"EPHEMERIS_TYPE":"0","NORAD_CAT_ID":"47888","ELEMENT_SET_NO":"999","INCLINATION":"53.0542","REV_AT_EPOCH":"8279","MEAN_ANOMALY":"295.1934","MEAN_ELEMENT_THEORY":"SGP4","TIME_SYSTEM":"UTC","FILE":"3556494","BSTAR":"0.00003044300000","REF_FRAME":"TEME","ECCENTRICITY":"0.00014790","GP_ID":"211635224","COUNTRY_CODE":"US","TLE_LINE2":"2 47888  53.0542 272.0467 0001479  64.9208 295.1934 15.06384792 82798","PERIOD":"95.593","LAUNCH_DATE":"2021-03-14","MEAN_MOTION":"15.06384792","OBJECT_NAME":"STARLINK-2348","OBJECT_ID":"2021-021AE","APOAPSIS":"548.284","CLASSIFICATION_TYPE":"U","PERIAPSIS":"546.236","RA_OF_ASC_NODE":"272.0467","EPOCH":"2022-09-03T12:13:17.891904","CENTER_NAME":"EARTH","ARG_OF_PERICENTER":"64.9208","MEAN_MOTION_DOT":"0.00000172","SEMIMAJOR_AXIS":"6925.395","RCS_SIZE":"LARGE","TLE_LINE1":"1 47888U 21021AE  22246.50923486  .00000172  00000-0  30443-4 0  9992","DECAY_DATE":null,"SITE":"AFETR","OBJECT_TYPE":"PAYLOAD","MEAN_MOTION_DDOT":"0.0000000000000"},{"NORAD_CAT_ID":"47889","EPHEMERIS_TYPE":"0","REV_AT_EPOCH":"8285","INCLINATION":"53.0548","ELEMENT_SET_NO":"999","REF_FRAME":"TEME","TIME_SYSTEM":"UTC","MEAN_ANOMALY":"289.0279","MEAN_ELEMENT_THEORY":"SGP4","FILE":"3556957","BSTAR":"0.00004312200000","COUNTRY_CODE":"US","GP_ID":"211671009","TLE_LINE2":"2 47889  53.0548 271.7053 0001468  71.0869 289.0279 15.06404024 82854","ECCENTRICITY":"0.00014680","PERIOD":"95.592","RA_OF_ASC_NODE":"271.7053","PERIAPSIS":"546.185","MEAN_MOTION":"15.06404024","LAUNCH_DATE":"2021-03-14","CLASSIFICATION_TYPE":"U","APOAPSIS":"548.218","OBJECT_ID":"2021-021AF","OBJECT_NAME":"STARLINK-2349","ARG_OF_PERICENTER":"71.0869","SEMIMAJOR_AXIS":"6925.336","MEAN_MOTION_DOT":"0.00000361","EPOCH":"2022-09-03T14:04:44.549472","CENTER_NAME":"EARTH","OBJECT_TYPE":"PAYLOAD","DECAY_DATE":null,"SITE":"AFETR","MEAN_MOTION_DDOT":"0.0000000000000","RCS_SIZE":"LARGE","TLE_LINE1":"1 47889U 21021AF  22246.58662673  .00000361  00000-0  43122-4 0  9997"},{"TLE_LINE1":"1 47890U 21021AG  22246.54089020  .00265296  00000-0  43994-2 0  9999","RCS_SIZE":"LARGE","MEAN_MOTION_DDOT":"0.0000000000000","DECAY_DATE":null,"SITE":"AFETR","OBJECT_TYPE":"PAYLOAD","CENTER_NAME":"EARTH","EPOCH":"2022-09-03T12:58:52.913280","MEAN_MOTION_DOT":"0.00265296","SEMIMAJOR_AXIS":"6792.925","ARG_OF_PERICENTER":"272.6961","OBJECT_ID":"2021-021AG","OBJECT_NAME":"STARLINK-2350","APOAPSIS":"419.789","CLASSIFICATION_TYPE":"U","LAUNCH_DATE":"2021-03-14","MEAN_MOTION":"15.50663223","PERIAPSIS":"409.792","RA_OF_ASC_NODE":"203.6301","PERIOD":"92.863","ECCENTRICITY":"0.00073590","TLE_LINE2":"2 47890  53.0517 203.6301 0007359 272.6961  87.3205 15.50663223 83271","GP_ID":"211639425","COUNTRY_CODE":"US","FILE":"3556544","BSTAR":"0.00439940000000","MEAN_ANOMALY":"87.3205","MEAN_ELEMENT_THEORY":"SGP4","TIME_SYSTEM":"UTC","REF_FRAME":"TEME","ELEMENT_SET_NO":"999","INCLINATION":"53.0517","REV_AT_EPOCH":"8327","EPHEMERIS_TYPE":"0","NORAD_CAT_ID":"47890"},{"REV_AT_EPOCH":"8281","ELEMENT_SET_NO":"999","INCLINATION":"53.0547","NORAD_CAT_ID":"47891","EPHEMERIS_TYPE":"0","COUNTRY_CODE":"US","GP_ID":"211634970","TLE_LINE2":"2 47891  53.0547 281.9696 0001488  71.3228 288.7922 15.06405271 82818","ECCENTRICITY":"0.00014880","REF_FRAME":"TEME","TIME_SYSTEM":"UTC","MEAN_ELEMENT_THEORY":"SGP4","MEAN_ANOMALY":"288.7922","FILE":"3556494","BSTAR":"0.00003408900000","PERIAPSIS":"546.167","RA_OF_ASC_NODE":"281.9696","MEAN_MOTION":"15.06405271","LAUNCH_DATE":"2021-03-14","CLASSIFICATION_TYPE":"U","APOAPSIS":"548.228","OBJECT_NAME":"STARLINK-2351","OBJECT_ID":"2021-021AH","PERIOD":"95.592","OBJECT_TYPE":"PAYLOAD","SITE":"AFETR","DECAY_DATE":null,"MEAN_MOTION_DDOT":"0.0000000000000","RCS_SIZE":"LARGE","TLE_LINE1":"1 47891U 21021AH  22246.52673079  .00000226  00000-0  34089-4 0  9998","ARG_OF_PERICENTER":"71.3228","SEMIMAJOR_AXIS":"6925.332","MEAN_MOTION_DOT":"0.00000226","EPOCH":"2022-09-03T12:38:29.540256","CENTER_NAME":"EARTH"}];
